[{"OBJECT_NAME":"IRIDIUM 145","OBJECT_ID":"2018-030E","EPOCH":"2026-03-09T23:33:38.409120","MEAN_MOTION":14.34213927,"ECCENTRICITY":0.00019039,"INCLINATION":86.4013,"RA_OF_ASC_NODE":331.8973,"ARG_OF_PERICENTER":94.1139,"MEAN_ANOMALY":266.0275,"EPHEMERIS_TYPE":0,"CLASSIFICATION_TYPE":"U","NORAD_CAT_ID":43253,"ELEMENT_SET_NO":999,"REV_AT_EPOCH":41590,"BSTAR":0.00011521042,"MEAN_MOTION_DOT":3.42e-6,"MEAN_MOTION_DDOT":0},{"OBJECT_NAME":"FENGYUN 1C DEB","OBJECT_ID":"1999-025EYN","EPOCH":"2026-03-06T03:58:01.145856","MEAN_MOTION":14.24760323,"ECCENTRICITY":0.00518839,"INCLINATION":98.7267,"RA_OF_ASC_NODE":134.382,"ARG_OF_PERICENTER":346.5518,"MEAN_ANOMALY":13.4276,"EPHEMERIS_TYPE":0,"CLASSIFICATION_TYPE":"U","NORAD_CAT_ID":43214,"ELEMENT_SET_NO":999,"REV_AT_EPOCH":41591,"BSTAR":0.001291219,"MEAN_MOTION_DOT":3.007e-5,"MEAN_MOTION_DDOT":0}]
